ORBCOMM FM24            
1 25478U 98053D   24276.39515140  .00007991  00000+0  27414-2 0  9995
2 25478  45.0082  50.1510 0000600 264.0582  96.0198 14.36530407360355
ORBCOMM FM25            
1 25479U 98053E   24276.43276760  .00007744  00000+0  26589-2 0  9991
2 25479  45.0075  48.2258 0002093  31.6212 328.4761 14.36513274360655
ORBCOMM FM26            
1 25480U 98053F   24276.43163460  .00006204  00000+0  21703-2 0  9998
2 25480  45.0071  43.0252 0004217  61.8836 298.2437 14.35816570360587
ORBCOMM FM27            
1 25481U 98053G   24276.42204064  .00008736  00000+0  29932-2 0  9998
2 25481  45.0059  48.5335 0001857 211.9884 148.0851 14.36509122360589
ORBCOMM FM28            
1 25482U 98053H   24276.36752181  .00007047  00000+0  24070-2 0  9992
2 25482  45.0068 346.8100 0001749 102.2145 257.8899 14.36868217361255
ORBCOMM FM30            
1 25980U 99065A   24276.31018992  .00006995  00000+0  24331-2 0  9990
2 25980  45.0296 229.2719 0004494 161.3296 198.7718 14.35965010297365
ORBCOMM FM31            
1 25981U 99065B   24276.20716270  .00006652  00000+0  23176-2 0  9999
2 25981  45.0216 223.3570 0002340 204.7252 155.3484 14.35938457296903
ORBCOMM FM32            
1 25982U 99065C   24276.35849764  .00007180  00000+0  25468-2 0  9994
2 25982  45.0142 237.4662 0004419 198.3542 161.7146 14.34961442297545
