<?xml version="1.0" encoding="UTF-8"?>
<ndm xmlns:xsi="http://www.w3.org/2001/XMLSchema-instance" xsi:noNamespaceSchemaLocation="https://sanaregistry.org/r/ndmxml_unqualified/ndmxml-2.0.0-master-2.0.xsd">
<omm id="CCSDS_OMM_VERS" version="2.0">
<header><CREATION_DATE/><ORIGINATOR/></header><body><segment><metadata><OBJECT_NAME>ORBCOMM FM24</OBJECT_NAME><OBJECT_ID>1998-053D</OBJECT_ID><CENTER_NAME>EARTH</CENTER_NAME><REF_FRAME>TEME</REF_FRAME><TIME_SYSTEM>UTC</TIME_SYSTEM><MEAN_ELEMENT_THEORY>SGP4</MEAN_ELEMENT_THEORY></metadata><data><meanElements><EPOCH>2024-10-02T09:29:01.080960</EPOCH><MEAN_MOTION>14.36530407</MEAN_MOTION><ECCENTRICITY>.00006</ECCENTRICITY><INCLINATION>45.0082</INCLINATION><RA_OF_ASC_NODE>50.1510</RA_OF_ASC_NODE><ARG_OF_PERICENTER>264.0582</ARG_OF_PERICENTER><MEAN_ANOMALY>96.0198</MEAN_ANOMALY></meanElements><tleParameters><EPHEMERIS_TYPE>0</EPHEMERIS_TYPE><CLASSIFICATION_TYPE>U</CLASSIFICATION_TYPE><NORAD_CAT_ID>25478</NORAD_CAT_ID><ELEMENT_SET_NO>999</ELEMENT_SET_NO><REV_AT_EPOCH>36035</REV_AT_EPOCH><BSTAR>.27414E-2</BSTAR><MEAN_MOTION_DOT>.7991E-4</MEAN_MOTION_DOT><MEAN_MOTION_DDOT>0</MEAN_MOTION_DDOT></tleParameters></data></segment></body></omm>
<omm id="CCSDS_OMM_VERS" version="2.0">
<header><CREATION_DATE/><ORIGINATOR/></header><body><segment><metadata><OBJECT_NAME>ORBCOMM FM25</OBJECT_NAME><OBJECT_ID>1998-053E</OBJECT_ID><CENTER_NAME>EARTH</CENTER_NAME><REF_FRAME>TEME</REF_FRAME><TIME_SYSTEM>UTC</TIME_SYSTEM><MEAN_ELEMENT_THEORY>SGP4</MEAN_ELEMENT_THEORY></metadata><data><meanElements><EPOCH>2024-10-02T10:23:11.120640</EPOCH><MEAN_MOTION>14.36513274</MEAN_MOTION><ECCENTRICITY>.0002093</ECCENTRICITY><INCLINATION>45.0075</INCLINATION><RA_OF_ASC_NODE>48.2258</RA_OF_ASC_NODE><ARG_OF_PERICENTER>31.6212</ARG_OF_PERICENTER><MEAN_ANOMALY>328.4761</MEAN_ANOMALY></meanElements><tleParameters><EPHEMERIS_TYPE>0</EPHEMERIS_TYPE><CLASSIFICATION_TYPE>U</CLASSIFICATION_TYPE><NORAD_CAT_ID>25479</NORAD_CAT_ID><ELEMENT_SET_NO>999</ELEMENT_SET_NO><REV_AT_EPOCH>36065</REV_AT_EPOCH><BSTAR>.26589E-2</BSTAR><MEAN_MOTION_DOT>.7744E-4</MEAN_MOTION_DOT><MEAN_MOTION_DDOT>0</MEAN_MOTION_DDOT></tleParameters></data></segment></body></omm>
<omm id="CCSDS_OMM_VERS" version="2.0">
<header><CREATION_DATE/><ORIGINATOR/></header><body><segment><metadata><OBJECT_NAME>ORBCOMM FM26</OBJECT_NAME><OBJECT_ID>1998-053F</OBJECT_ID><CENTER_NAME>EARTH</CENTER_NAME><REF_FRAME>TEME</REF_FRAME><TIME_SYSTEM>UTC</TIME_SYSTEM><MEAN_ELEMENT_THEORY>SGP4</MEAN_ELEMENT_THEORY></metadata><data><meanElements><EPOCH>2024-10-02T10:21:33.229440</EPOCH><MEAN_MOTION>14.35816570</MEAN_MOTION><ECCENTRICITY>.0004217</ECCENTRICITY><INCLINATION>45.0071</INCLINATION><RA_OF_ASC_NODE>43.0252</RA_OF_ASC_NODE><ARG_OF_PERICENTER>61.8836</ARG_OF_PERICENTER><MEAN_ANOMALY>298.2437</MEAN_ANOMALY></meanElements><tleParameters><EPHEMERIS_TYPE>0</EPHEMERIS_TYPE><CLASSIFICATION_TYPE>U</CLASSIFICATION_TYPE><NORAD_CAT_ID>25480</NORAD_CAT_ID><ELEMENT_SET_NO>999</ELEMENT_SET_NO><REV_AT_EPOCH>36058</REV_AT_EPOCH><BSTAR>.21703E-2</BSTAR><MEAN_MOTION_DOT>.6204E-4</MEAN_MOTION_DOT><MEAN_MOTION_DDOT>0</MEAN_MOTION_DDOT></tleParameters></data></segment></body></omm>
<omm id="CCSDS_OMM_VERS" version="2.0">
<header><CREATION_DATE/><ORIGINATOR/></header><body><segment><metadata><OBJECT_NAME>ORBCOMM FM27</OBJECT_NAME><OBJECT_ID>1998-053G</OBJECT_ID><CENTER_NAME>EARTH</CENTER_NAME><REF_FRAME>TEME</REF_FRAME><TIME_SYSTEM>UTC</TIME_SYSTEM><MEAN_ELEMENT_THEORY>SGP4</MEAN_ELEMENT_THEORY></metadata><data><meanElements><EPOCH>2024-10-02T10:07:44.311296</EPOCH><MEAN_MOTION>14.36509122</MEAN_MOTION><ECCENTRICITY>.0001857</ECCENTRICITY><INCLINATION>45.0059</INCLINATION><RA_OF_ASC_NODE>48.5335</RA_OF_ASC_NODE><ARG_OF_PERICENTER>211.9884</ARG_OF_PERICENTER><MEAN_ANOMALY>148.0851</MEAN_ANOMALY></meanElements><tleParameters><EPHEMERIS_TYPE>0</EPHEMERIS_TYPE><CLASSIFICATION_TYPE>U</CLASSIFICATION_TYPE><NORAD_CAT_ID>25481</NORAD_CAT_ID><ELEMENT_SET_NO>999</ELEMENT_SET_NO><REV_AT_EPOCH>36058</REV_AT_EPOCH><BSTAR>.29932E-2</BSTAR><MEAN_MOTION_DOT>.8736E-4</MEAN_MOTION_DOT><MEAN_MOTION_DDOT>0</MEAN_MOTION_DDOT></tleParameters></data></segment></body></omm>
<omm id="CCSDS_OMM_VERS" version="2.0">
<header><CREATION_DATE/><ORIGINATOR/></header><body><segment><metadata><OBJECT_NAME>ORBCOMM FM28</OBJECT_NAME><OBJECT_ID>1998-053H</OBJECT_ID><CENTER_NAME>EARTH</CENTER_NAME><REF_FRAME>TEME</REF_FRAME><TIME_SYSTEM>UTC</TIME_SYSTEM><MEAN_ELEMENT_THEORY>SGP4</MEAN_ELEMENT_THEORY></metadata><data><meanElements><EPOCH>2024-10-02T08:49:13.884384</EPOCH><MEAN_MOTION>14.36868217</MEAN_MOTION><ECCENTRICITY>.0001749</ECCENTRICITY><INCLINATION>45.0068</INCLINATION><RA_OF_ASC_NODE>346.8100</RA_OF_ASC_NODE><ARG_OF_PERICENTER>102.2145</ARG_OF_PERICENTER><MEAN_ANOMALY>257.8899</MEAN_ANOMALY></meanElements><tleParameters><EPHEMERIS_TYPE>0</EPHEMERIS_TYPE><CLASSIFICATION_TYPE>U</CLASSIFICATION_TYPE><NORAD_CAT_ID>25482</NORAD_CAT_ID><ELEMENT_SET_NO>999</ELEMENT_SET_NO><REV_AT_EPOCH>36125</REV_AT_EPOCH><BSTAR>.2407E-2</BSTAR><MEAN_MOTION_DOT>.7047E-4</MEAN_MOTION_DOT><MEAN_MOTION_DDOT>0</MEAN_MOTION_DDOT></tleParameters></data></segment></body></omm>
<omm id="CCSDS_OMM_VERS" version="2.0">
<header><CREATION_DATE/><ORIGINATOR/></header><body><segment><metadata><OBJECT_NAME>ORBCOMM FM30</OBJECT_NAME><OBJECT_ID>1999-065A</OBJECT_ID><CENTER_NAME>EARTH</CENTER_NAME><REF_FRAME>TEME</REF_FRAME><TIME_SYSTEM>UTC</TIME_SYSTEM><MEAN_ELEMENT_THEORY>SGP4</MEAN_ELEMENT_THEORY></metadata><data><meanElements><EPOCH>2024-10-02T07:26:40.409088</EPOCH><MEAN_MOTION>14.35965010</MEAN_MOTION><ECCENTRICITY>.0004494</ECCENTRICITY><INCLINATION>45.0296</INCLINATION><RA_OF_ASC_NODE>229.2719</RA_OF_ASC_NODE><ARG_OF_PERICENTER>161.3296</ARG_OF_PERICENTER><MEAN_ANOMALY>198.7718</MEAN_ANOMALY></meanElements><tleParameters><EPHEMERIS_TYPE>0</EPHEMERIS_TYPE><CLASSIFICATION_TYPE>U</CLASSIFICATION_TYPE><NORAD_CAT_ID>25980</NORAD_CAT_ID><ELEMENT_SET_NO>999</ELEMENT_SET_NO><REV_AT_EPOCH>29736</REV_AT_EPOCH><BSTAR>.24331E-2</BSTAR><MEAN_MOTION_DOT>.6995E-4</MEAN_MOTION_DOT><MEAN_MOTION_DDOT>0</MEAN_MOTION_DDOT></tleParameters></data></segment></body></omm>
<omm id="CCSDS_OMM_VERS" version="2.0">
<header><CREATION_DATE/><ORIGINATOR/></header><body><segment><metadata><OBJECT_NAME>ORBCOMM FM31</OBJECT_NAME><OBJECT_ID>1999-065B</OBJECT_ID><CENTER_NAME>EARTH</CENTER_NAME><REF_FRAME>TEME</REF_FRAME><TIME_SYSTEM>UTC</TIME_SYSTEM><MEAN_ELEMENT_THEORY>SGP4</MEAN_ELEMENT_THEORY></metadata><data><meanElements><EPOCH>2024-10-02T04:58:18.857280</EPOCH><MEAN_MOTION>14.35938457</MEAN_MOTION><ECCENTRICITY>.000234</ECCENTRICITY><INCLINATION>45.0216</INCLINATION><RA_OF_ASC_NODE>223.3570</RA_OF_ASC_NODE><ARG_OF_PERICENTER>204.7252</ARG_OF_PERICENTER><MEAN_ANOMALY>155.3484</MEAN_ANOMALY></meanElements><tleParameters><EPHEMERIS_TYPE>0</EPHEMERIS_TYPE><CLASSIFICATION_TYPE>U</CLASSIFICATION_TYPE><NORAD_CAT_ID>25981</NORAD_CAT_ID><ELEMENT_SET_NO>999</ELEMENT_SET_NO><REV_AT_EPOCH>29690</REV_AT_EPOCH><BSTAR>.23176E-2</BSTAR><MEAN_MOTION_DOT>.6652E-4</MEAN_MOTION_DOT><MEAN_MOTION_DDOT>0</MEAN_MOTION_DDOT></tleParameters></data></segment></body></omm>
<omm id="CCSDS_OMM_VERS" version="2.0">
<header><CREATION_DATE/><ORIGINATOR/></header><body><segment><metadata><OBJECT_NAME>ORBCOMM FM32</OBJECT_NAME><OBJECT_ID>1999-065C</OBJECT_ID><CENTER_NAME>EARTH</CENTER_NAME><REF_FRAME>TEME</REF_FRAME><TIME_SYSTEM>UTC</TIME_SYSTEM><MEAN_ELEMENT_THEORY>SGP4</MEAN_ELEMENT_THEORY></metadata><data><meanElements><EPOCH>2024-10-02T08:36:14.196096</EPOCH><MEAN_MOTION>14.34961442</MEAN_MOTION><ECCENTRICITY>.0004419</ECCENTRICITY><INCLINATION>45.0142</INCLINATION><RA_OF_ASC_NODE>237.4662</RA_OF_ASC_NODE><ARG_OF_PERICENTER>198.3542</ARG_OF_PERICENTER><MEAN_ANOMALY>161.7146</MEAN_ANOMALY></meanElements><tleParameters><EPHEMERIS_TYPE>0</EPHEMERIS_TYPE><CLASSIFICATION_TYPE>U</CLASSIFICATION_TYPE><NORAD_CAT_ID>25982</NORAD_CAT_ID><ELEMENT_SET_NO>999</ELEMENT_SET_NO><REV_AT_EPOCH>29754</REV_AT_EPOCH><BSTAR>.25468E-2</BSTAR><MEAN_MOTION_DOT>.718E-4</MEAN_MOTION_DOT><MEAN_MOTION_DDOT>0</MEAN_MOTION_DDOT></tleParameters></data></segment></body></omm>

</ndm>
